KUIPER-00061            
1 64521U 25134X   25340.57690505  .00007664  00000+0  10260-2 0  9997
2 64521  51.9016 279.8007 0005099 335.7136  24.3586 14.80227561 26345
KUIPER-00062            
1 64522U 25134Y   25340.55904509  .00008496  00000+0  10108-2 0  9993
2 64522  51.8984 285.0947 0007065 353.2169   6.8699 14.85043126 26288
KUIPER-00063            
1 64523U 25134Z   25340.89653203  .00009423  00000+0  12514-2 0  9997
2 64523  51.9032 288.3110 0003050 312.3541  47.7163 14.80333016 26265
KUIPER-00064            
1 64524U 25134AA  25340.57136347  .00005017  00000+0  68628-3 0  9991
2 64524  51.9043 287.2687 0008539  48.4632 311.7062 14.79949838 26254
KUIPER-00065            
1 64525U 25134AB  25340.57163768  .00006764  00000+0  98245-3 0  9997
2 64525  51.9026 292.4782 0010685 335.0445  24.9998 14.76881406 26166
KUIPER-00066            
1 64526U 25134AC  25340.92097360  .00028356  00000+0  12872-2 0  9993
2 64526  51.8867 262.0889 0001235  77.3080 282.8037 15.20575371 26634
KUIPER-00069            
1 64816U 25151A   25340.25270573  .00007240  00000+0  97634-3 0  9998
2 64816  51.9023 333.7875 0006690 338.0486  22.0189 14.79985777 22927
KUIPER-00070            
1 64817U 25151B   25340.46208480 -.00009089  00000+0 -11645-2 0  9992
2 64817  51.9014 357.8179 0009999 305.4314  54.5714 14.79894986 22616
